CCSDS_OMM_VERS = 2.0
CREATION_DATE  = 
ORIGINATOR     = 

OBJECT_NAME    = ATLAS CENTAUR R/B
OBJECT_ID      = 1972-065B
CENTER_NAME    = EARTH
REF_FRAME      = TEME
TIME_SYSTEM    = UTC
MEAN_ELEMENT_THEORY = SGP/SGP4

EPOCH          = 2025-12-24T03:33:18.836352
MEAN_MOTION    = 14.77437332
ECCENTRICITY   = .00332155
INCLINATION    = 35.0025
RA_OF_ASC_NODE = 28.3690
ARG_OF_PERICENTER = 94.9103
MEAN_ANOMALY   = 265.5391

EPHEMERIS_TYPE = 0
CLASSIFICATION_TYPE = U
NORAD_CAT_ID   = 6155
ELEMENT_SET_NO = 999
REV_AT_EPOCH   = 83008
BSTAR          = .15799014E-3
MEAN_MOTION_DOT = .1129E-4
MEAN_MOTION_DDOT = 0

CCSDS_OMM_VERS = 2.0
CREATION_DATE  = 
ORIGINATOR     = 

OBJECT_NAME    = SL-8 R/B
OBJECT_ID      = 1975-112B
CENTER_NAME    = EARTH
REF_FRAME      = TEME
TIME_SYSTEM    = UTC
MEAN_ELEMENT_THEORY = SGP/SGP4

EPOCH          = 2025-12-24T20:45:16.101216
MEAN_MOTION    = 14.38153703
ECCENTRICITY   = .001669
INCLINATION    = 74.0593
RA_OF_ASC_NODE = 156.5552
ARG_OF_PERICENTER = 266.6625
MEAN_ANOMALY   = 93.2620

EPHEMERIS_TYPE = 0
CLASSIFICATION_TYPE = U
NORAD_CAT_ID   = 8459
ELEMENT_SET_NO = 999
REV_AT_EPOCH   = 62111
BSTAR          = .12376E-3
MEAN_MOTION_DOT = .35E-5
MEAN_MOTION_DDOT = 0

CCSDS_OMM_VERS = 2.0
CREATION_DATE  = 
ORIGINATOR     = 

OBJECT_NAME    = SL-3 R/B
OBJECT_ID      = 1977-057B
CENTER_NAME    = EARTH
REF_FRAME      = TEME
TIME_SYSTEM    = UTC
MEAN_ELEMENT_THEORY = SGP/SGP4

EPOCH          = 2025-12-25T03:24:16.615872
MEAN_MOTION    = 15.43240799
ECCENTRICITY   = .0007282
INCLINATION    = 97.5693
RA_OF_ASC_NODE = 162.9556
ARG_OF_PERICENTER = 183.5852
MEAN_ANOMALY   = 176.5344

EPHEMERIS_TYPE = 0
CLASSIFICATION_TYPE = U
NORAD_CAT_ID   = 10114
ELEMENT_SET_NO = 999
REV_AT_EPOCH   = 65682
BSTAR          = .29944E-3
MEAN_MOTION_DOT = .1323E-3
MEAN_MOTION_DDOT = 0

CCSDS_OMM_VERS = 2.0
CREATION_DATE  = 
ORIGINATOR     = 

OBJECT_NAME    = SEASAT 1
OBJECT_ID      = 1978-064A
CENTER_NAME    = EARTH
REF_FRAME      = TEME
TIME_SYSTEM    = UTC
MEAN_ELEMENT_THEORY = SGP/SGP4

EPOCH          = 2025-12-24T20:34:37.104096
MEAN_MOTION    = 14.46073798
ECCENTRICITY   = .00013468
INCLINATION    = 108.0138
RA_OF_ASC_NODE = 328.4576
ARG_OF_PERICENTER = 255.3230
MEAN_ANOMALY   = 104.7766

EPHEMERIS_TYPE = 0
CLASSIFICATION_TYPE = U
NORAD_CAT_ID   = 10967
ELEMENT_SET_NO = 999
REV_AT_EPOCH   = 49569
BSTAR          = .13744101E-3
MEAN_MOTION_DOT = .353E-5
MEAN_MOTION_DDOT = 0

CCSDS_OMM_VERS = 2.0
CREATION_DATE  = 
ORIGINATOR     = 

OBJECT_NAME    = SL-14 R/B
OBJECT_ID      = 1979-011B
CENTER_NAME    = EARTH
REF_FRAME      = TEME
TIME_SYSTEM    = UTC
MEAN_ELEMENT_THEORY = SGP/SGP4

EPOCH          = 2025-12-24T22:17:24.177120
MEAN_MOTION    = 14.91784267
ECCENTRICITY   = .0014892
INCLINATION    = 82.5234
RA_OF_ASC_NODE = 167.4835
ARG_OF_PERICENTER = 310.9929
MEAN_ANOMALY   = 49.0001

EPHEMERIS_TYPE = 0
CLASSIFICATION_TYPE = U
NORAD_CAT_ID   = 11267
ELEMENT_SET_NO = 999
REV_AT_EPOCH   = 51763
BSTAR          = .65605E-4
MEAN_MOTION_DOT = .687E-5
MEAN_MOTION_DDOT = 0

CCSDS_OMM_VERS = 2.0
CREATION_DATE  = 
ORIGINATOR     = 

OBJECT_NAME    = SL-8 R/B
OBJECT_ID      = 1979-089B
CENTER_NAME    = EARTH
REF_FRAME      = TEME
TIME_SYSTEM    = UTC
MEAN_ELEMENT_THEORY = SGP/SGP4

EPOCH          = 2025-12-25T02:43:20.195616
MEAN_MOTION    = 14.42291207
ECCENTRICITY   = .0014713
INCLINATION    = 74.0675
RA_OF_ASC_NODE = 229.0782
ARG_OF_PERICENTER = 58.2897
MEAN_ANOMALY   = 301.9691

EPHEMERIS_TYPE = 0
CLASSIFICATION_TYPE = U
NORAD_CAT_ID   = 11574
ELEMENT_SET_NO = 999
REV_AT_EPOCH   = 42535
BSTAR          = .79226E-4
MEAN_MOTION_DOT = .235E-5
MEAN_MOTION_DDOT = 0

CCSDS_OMM_VERS = 2.0
CREATION_DATE  = 
ORIGINATOR     = 

OBJECT_NAME    = SL-14 R/B
OBJECT_ID      = 1980-005B
CENTER_NAME    = EARTH
REF_FRAME      = TEME
TIME_SYSTEM    = UTC
MEAN_ELEMENT_THEORY = SGP/SGP4

EPOCH          = 2025-12-25T02:15:29.851200
MEAN_MOTION    = 14.90805598
ECCENTRICITY   = .0017083
INCLINATION    = 82.5139
RA_OF_ASC_NODE = 17.9814
ARG_OF_PERICENTER = 55.8573
MEAN_ANOMALY   = 304.4263

EPHEMERIS_TYPE = 0
CLASSIFICATION_TYPE = U
NORAD_CAT_ID   = 11672
ELEMENT_SET_NO = 999
REV_AT_EPOCH   = 46537
BSTAR          = .58927E-4
MEAN_MOTION_DOT = .606E-5
MEAN_MOTION_DDOT = 0

CCSDS_OMM_VERS = 2.0
CREATION_DATE  = 
ORIGINATOR     = 

OBJECT_NAME    = SL-8 R/B
OBJECT_ID      = 1981-003B
CENTER_NAME    = EARTH
REF_FRAME      = TEME
TIME_SYSTEM    = UTC
MEAN_ELEMENT_THEORY = SGP/SGP4

EPOCH          = 2025-12-25T00:28:37.585344
MEAN_MOTION    = 15.07399331
ECCENTRICITY   = .0277809
INCLINATION    = 82.9343
RA_OF_ASC_NODE = 358.9027
ARG_OF_PERICENTER = 78.0827
MEAN_ANOMALY   = 285.1403

EPHEMERIS_TYPE = 0
CLASSIFICATION_TYPE = U
NORAD_CAT_ID   = 12139
ELEMENT_SET_NO = 999
REV_AT_EPOCH   = 30341
BSTAR          = .49615E-3
MEAN_MOTION_DOT = .18758E-3
MEAN_MOTION_DDOT = 0

CCSDS_OMM_VERS = 2.0
CREATION_DATE  = 
ORIGINATOR     = 

OBJECT_NAME    = SL-3 R/B
OBJECT_ID      = 1981-046B
CENTER_NAME    = EARTH
REF_FRAME      = TEME
TIME_SYSTEM    = UTC
MEAN_ELEMENT_THEORY = SGP/SGP4

EPOCH          = 2025-12-25T04:07:33.601152
MEAN_MOTION    = 15.39859519
ECCENTRICITY   = .0018128
INCLINATION    = 81.2320
RA_OF_ASC_NODE = 19.0619
ARG_OF_PERICENTER = 278.8988
MEAN_ANOMALY   = 81.0201

EPHEMERIS_TYPE = 0
CLASSIFICATION_TYPE = U
NORAD_CAT_ID   = 12465
ELEMENT_SET_NO = 999
REV_AT_EPOCH   = 42695
BSTAR          = .28289E-3
MEAN_MOTION_DOT = .11329E-3
MEAN_MOTION_DDOT = 0

CCSDS_OMM_VERS = 2.0
CREATION_DATE  = 
ORIGINATOR     = 

OBJECT_NAME    = SL-3 R/B
OBJECT_ID      = 1981-103B
CENTER_NAME    = EARTH
REF_FRAME      = TEME
TIME_SYSTEM    = UTC
MEAN_ELEMENT_THEORY = SGP/SGP4

EPOCH          = 2025-12-25T03:57:57.611232
MEAN_MOTION    = 15.20377015
ECCENTRICITY   = .0012733
INCLINATION    = 81.1604
RA_OF_ASC_NODE = 300.8006
ARG_OF_PERICENTER = 169.4340
MEAN_ANOMALY   = 190.7161

EPHEMERIS_TYPE = 0
CLASSIFICATION_TYPE = U
NORAD_CAT_ID   = 12904
ELEMENT_SET_NO = 999
REV_AT_EPOCH   = 96190
BSTAR          = .29048E-3
MEAN_MOTION_DOT = .6362E-4
MEAN_MOTION_DDOT = 0

CCSDS_OMM_VERS = 2.0
CREATION_DATE  = 
ORIGINATOR     = 

OBJECT_NAME    = SL-3 R/B
OBJECT_ID      = 1982-013B
CENTER_NAME    = EARTH
REF_FRAME      = TEME
TIME_SYSTEM    = UTC
MEAN_ELEMENT_THEORY = SGP/SGP4

EPOCH          = 2025-12-25T03:24:07.983648
MEAN_MOTION    = 15.21191648
ECCENTRICITY   = .0024082
INCLINATION    = 81.1740
RA_OF_ASC_NODE = 248.0928
ARG_OF_PERICENTER = 71.1751
MEAN_ANOMALY   = 289.2090

EPHEMERIS_TYPE = 0
CLASSIFICATION_TYPE = U
NORAD_CAT_ID   = 13068
ELEMENT_SET_NO = 999
REV_AT_EPOCH   = 39301
BSTAR          = .1937E-3
MEAN_MOTION_DOT = .4378E-4
MEAN_MOTION_DDOT = 0

CCSDS_OMM_VERS = 2.0
CREATION_DATE  = 
ORIGINATOR     = 

OBJECT_NAME    = SL-3 R/B
OBJECT_ID      = 1982-039B
CENTER_NAME    = EARTH
REF_FRAME      = TEME
TIME_SYSTEM    = UTC
MEAN_ELEMENT_THEORY = SGP/SGP4

EPOCH          = 2025-12-25T04:00:43.004160
MEAN_MOTION    = 15.09594536
ECCENTRICITY   = .0029412
INCLINATION    = 81.1712
RA_OF_ASC_NODE = 301.7994
ARG_OF_PERICENTER = 210.0040
MEAN_ANOMALY   = 149.9501

EPHEMERIS_TYPE = 0
CLASSIFICATION_TYPE = U
NORAD_CAT_ID   = 13154
ELEMENT_SET_NO = 999
REV_AT_EPOCH   = 37039
BSTAR          = .19617E-3
MEAN_MOTION_DOT = .3206E-4
MEAN_MOTION_DDOT = 0

